{
    "links": {
        "self": "http://www.neowsapp.com/rest/v1/neo/3574131?api_key=iIulBulltgU6a56xZRHN4H3l9WmuAYTsLGpBGhQ2"
    },
    "id": "3574131",
    "neo_reference_id": "3574131",
    "name": "(2011 OE16)",
    "designation": "2011 OE16",
    "nasa_jpl_url": "http://ssd.jpl.nasa.gov/sbdb.cgi?sstr=3574131",
    "absolute_magnitude_h": 23.8,
    "estimated_diameter": {
        "kilometers": {
            "estimated_diameter_min": 0.046190746,
            "estimated_diameter_max": 0.1032856481
        },
        "meters": {
            "estimated_diameter_min": 46.1907460282,
            "estimated_diameter_max": 103.2856480504
        },
        "miles": {
            "estimated_diameter_min": 0.0287015901,
            "estimated_diameter_max": 0.0641787064
        },
        "feet": {
            "estimated_diameter_min": 151.544447199,
            "estimated_diameter_max": 338.8636855496
        }
    },
    "is_potentially_hazardous_asteroid": false,
    "close_approach_data": [
        {
            "close_approach_date": "2011-08-13",
            "close_approach_date_full": "2011-Aug-13 13:11",
            "epoch_date_close_approach": 1313241060000,
            "relative_velocity": {
                "kilometers_per_second": "5.3394421135",
                "kilometers_per_hour": "19221.9916084224",
                "miles_per_hour": "11943.7980635778"
            },
            "miss_distance": {
                "astronomical": "0.1653524642",
                "lunar": "64.3221085738",
                "kilometers": "24736376.443571254",
                "miles": "15370471.5837971452"
            },
            "orbiting_body": "Earth"
        }
    ],
    "orbital_data": {
        "orbit_id": "9",
        "orbit_determination_date": "2017-04-06 08:53:06",
        "first_observation_date": "2011-07-27",
        "last_observation_date": "2011-08-22",
        "data_arc_in_days": 26,
        "observations_used": 23,
        "orbit_uncertainty": "7",
        "minimum_orbit_intersection": ".165949",
        "jupiter_tisserand_invariant": "3.478",
        "epoch_osculation": "2459000.5",
        "eccentricity": ".4739656813845917",
        "semi_major_axis": "2.229659039246752",
        "inclination": "6.778780524853723",
        "ascending_node_longitude": "123.3684433815735",
        "orbital_period": "1216.06309913465",
        "perihelion_distance": "1.172877173454852",
        "perihelion_argument": "202.0456114938487",
        "aphelion_distance": "3.286440905038653",
        "perihelion_time": "2459440.862046254667",
        "mean_anomaly": "229.6364220207897",
        "mean_motion": ".2960372699872036",
        "equinox": "J2000",
        "orbit_class": {
            "orbit_class_type": "AMO",
            "orbit_class_description": "Near-Earth asteroid orbits similar to that of 1221 Amor",
            "orbit_class_range": "1.017 AU < q (perihelion) < 1.3 AU"
        }
    },
    "is_sentry_object": false
}